NORAD_CAT_ID,OBJECT_NAME,OBJECT_TYPE,EPOCH,MEAN_MOTION,ECCENTRICITY,INCLINATION,RA_OF_ASC_NODE,ARG_OF_PERICENTER,MEAN_ANOMALY,BSTAR,MEAN_MOTION_DOT,MEAN_MOTION_DDOT,TLE_LINE0,TLE_LINE1,TLE_LINE2,SEMIMAJOR_AXIS,PERIOD,APOGEE,PERIGEE,DECAYED
51976.0,STARLINK-3663,PAYLOAD,2022-06-21 22:00:00,15.08825205,0.000184,53.2232,9.8951,44.183,101.7477,0.0011894,0.00018684,0.0,0 STARLINK-3663,1 51976U 22025W   22172.91667824  .00018684  00000-0  11894-2 0  9998,2 51976  53.2232   9.8951 0001840  44.1830 101.7477 15.08825205  1309,6917.926,95.438,541.064,538.518,0.0
51976.0,STARLINK-3663,PAYLOAD,2022-06-22 00:00:02,15.088232,0.0001846,53.2231,9.5212,43.1816,195.7094,0.0016161,0.00025514,0.0,0 STARLINK-3663,1 51976U 22025W   22173.00002315  .00025514  00000-0  16161-2 0  9999,2 51976  53.2231   9.5212 0001846  43.1816 195.7094 15.08823200 17357,6917.932,95.439,541.0740000000002,538.52,0.0
51976.0,STARLINK-3663,PAYLOAD,2022-06-22 14:00:01,15.08833066,0.0001761999999999,53.2236,6.9012,52.8389,116.2607,0.00049648,7.621e-05,0.0,0 STARLINK-3663,1 51976U 22025W   22173.58334491  .00007621  00000-0  49648-3 0  9991,2 51976  53.2236   6.9012 0001762  52.8389 116.2607 15.08833066  1307,6917.901999999999,95.438,540.986,538.548,0.0
51976.0,STARLINK-3663,PAYLOAD,2022-06-22 16:00:00,15.08843675,0.0001792,53.2235,6.5277,50.9034,211.0904,-0.00093236,-0.00015098,0.0,0 STARLINK-3663,1 51976U 22025W   22173.66667824 -.00015098  00000-0 -93236-3 0  9990,2 51976  53.2235   6.5277 0001792  50.9034 211.0904 15.08843675 17458,6917.869000000002,95.437,540.974,538.494,0.0
51976.0,STARLINK-3663,PAYLOAD,2022-06-22 22:00:00,15.08817588,0.0001934,53.2235,5.4068,46.4273,134.265,0.0023198,0.00036802,0.0,0 STARLINK-3663,1 51976U 22025W   22173.91667824  .00036802  00000-0  23198-2 0  9991,2 51976  53.2235   5.4068 0001934  46.4273 134.2650 15.08817588  1302,6917.949000000001,95.439,541.1519999999998,538.476,0.0
51976.0,STARLINK-3663,PAYLOAD,2022-06-23 14:00:01,15.08849681,0.0001835,53.2236,2.4130000000000003,55.1491,148.7311,-0.0015167,-0.00024352,0.0,0 STARLINK-3663,1 51976U 22025W   22174.58334491 -.00024352  00000-0 -15167-2 0  9992,2 51976  53.2236   2.4130 0001835  55.1491 148.7311 15.08849681 17590,6917.851,95.437,540.985,538.446,0.0
51976.0,STARLINK-3663,PAYLOAD,2022-06-23 22:00:00,15.08813191,0.0002018,53.2234,0.9184,49.4342,166.0476,0.0026465,0.00042052,0.0,0 STARLINK-3663,1 51976U 22025W   22174.91667824  .00042052  00000-0  26465-2 0  9996,2 51976  53.2234   0.9184 0002018  49.4342 166.0476 15.08813191  1309,6917.962,95.439,541.2230000000002,538.431,0.0
51976.0,STARLINK-3663,PAYLOAD,2022-06-24 06:00:02,15.088413199999998,0.0001841,53.2231,359.4206,53.1541,173.9705,-0.00037794,-6.298e-05,0.0,0 STARLINK-3663,1 51976U 22025W   22175.25002315 -.00006298  00000-0 -37794-3 0  9994,2 51976  53.2231 359.4206 0001841  53.1541 173.9705 15.08841320 17695,6917.876,95.437,541.015,538.4680000000002,0.0
51976.0,STARLINK-3663,PAYLOAD,2022-06-24 14:00:01,15.08853976,0.0001848,53.2227,357.9255,57.3115,181.336,-0.00049863,-8.218e-05,0.0,0 STARLINK-3663,1 51976U 22025W   22175.58334491 -.00008218  00000-0 -49863-3 0  9997,2 51976  53.2227 357.9255 0001848  57.3115 181.3360 15.08853976  1308,6917.8380000000025,95.437,540.981,538.424,0.0
51976.0,STARLINK-3663,PAYLOAD,2022-06-24 22:00:01,15.08829307,0.0001984,53.2229,356.43,50.7833,199.543,0.0026806,0.0004262,0.0,0 STARLINK-3663,1 51976U 22025W   22175.91668981  .00042620  00000-0  26806-2 0  9992,2 51976  53.2229 356.4300 0001984  50.7833 199.5430 15.08829307  1300,6917.913000000001,95.438,541.151,538.406,0.0
51976.0,STARLINK-3663,PAYLOAD,2022-06-25 06:00:00,15.08855788,0.0001766,53.2227,354.9321,54.1422,207.721,-0.0030491,-0.00048509,0.0,0 STARLINK-3663,1 51976U 22025W   22176.25001157 -.00048509  00000-0 -30491-2 0  9995,2 51976  53.2227 354.9321 0001766  54.1422 207.7210 15.08855788 17840,6917.831999999999,95.437,540.919,538.475,0.0
51976.0,STARLINK-3663,PAYLOAD,2022-06-25 14:00:01,15.08842547,0.0001732,53.2227,353.4362,56.3679,217.0861,-0.0008366,-0.00013579,0.0,0 STARLINK-3663,1 51976U 22025W   22176.58334491 -.00013579  00000-0 -83660-3 0  9997,2 51976  53.2227 353.4362 0001732  56.3679 217.0861 15.08842547  1309,6917.873000000001,95.437,540.936,538.539,0.0
51976.0,STARLINK-3663,PAYLOAD,2022-06-25 22:00:00,15.08815277,0.0001883,53.2223,351.9415,49.76300000000001,235.2916,0.0030249,0.0004815,0.0,0 STARLINK-3663,1 51976U 22025W   22176.91667824  .00048150  00000-0  30249-2 0  9998,2 51976  53.2223 351.9415 0001883  49.7630 235.2916 15.08815277 17947,6917.956,95.439,541.124,538.518,0.0
51976.0,STARLINK-3663,PAYLOAD,2022-06-26 14:00:01,15.08869921,0.0001727,53.2198,348.9507,54.0925,254.2127,-0.0088031,-0.00137835,0.0,0 STARLINK-3663,1 51976U 22025W   22177.58335648 -.00137835  00000-0 -88031-2 0  9991,2 51976  53.2198 348.9507 0001727  54.0925 254.2127 15.08869921 18041,6917.7890000000025,95.436,540.849,538.4590000000002,0.0
51976.0,STARLINK-3663,PAYLOAD,2022-06-26 22:00:00,15.08810932,0.0001795,53.2219,347.4527,47.3107,272.5386,0.0032333,0.00051505,0.0,0 STARLINK-3663,1 51976U 22025W   22177.91667824  .00051505  00000-0  32333-2 0  9993,2 51976  53.2219 347.4527 0001795  47.3107 272.5386 15.08810932 18096,6917.969,95.439,541.076,538.592,0.0
51976.0,STARLINK-3663,PAYLOAD,2022-06-27 14:00:01,15.08830304,0.0001615,53.2221,344.4588,51.0498,291.9634,-0.0012661,-0.00020376,0.0,0 STARLINK-3663,1 51976U 22025W   22178.58334491 -.00020376  00000-0 -12661-2 0  9994,2 51976  53.2221 344.4588 0001615  51.0498 291.9634 15.08830304 18196,6917.91,95.438,540.8919999999998,538.658,0.0
51976.0,STARLINK-3663,PAYLOAD,2022-06-27 22:00:00,15.08802765,0.0001758,53.222,342.9639,44.4584,310.1368,0.0030951,0.00049265,0.0,0 STARLINK-3663,1 51976U 22025W   22178.91667824  .00049265  00000-0  30951-2 0  9998,2 51976  53.2220 342.9639 0001758  44.4584 310.1368 15.08802765  1308,6917.994000000002,95.44,541.075,538.643,0.0
51976.0,STARLINK-3663,PAYLOAD,2022-06-28 06:00:00,15.08811976,0.0001604,53.2222,341.4658,49.7836,316.3849,0.0017671,0.00027926,0.0,0 STARLINK-3663,1 51976U 22025W   22179.25001157  .00027926  00000-0  17671-2 0  9991,2 51976  53.2222 341.4658 0001604  49.7836 316.3849 15.08811976 18295,6917.965999999999,95.439,540.941,538.721,0.0
51976.0,STARLINK-3663,PAYLOAD,2022-06-28 14:00:01,15.08847578,0.0001701,53.2225,339.9702,50.5737,327.1594,-0.001604,-0.0002573,0.0,0 STARLINK-3663,1 51976U 22025W   22179.58334491 -.00025730  00000-0 -16040-2 0  9999,2 51976  53.2225 339.9702 0001701  50.5737 327.1594 15.08847578  1306,6917.857,95.437,540.899,538.545,0.0
51976.0,STARLINK-3663,PAYLOAD,2022-06-28 22:00:00,15.08818919,0.0001822,53.2224,338.4751,44.6386,344.6926,0.0027353,0.00043488,0.0,0 STARLINK-3663,1 51976U 22025W   22179.91667824  .00043488  00000-0  27353-2 0  9992,2 51976  53.2224 338.4751 0001822  44.6386 344.6926 15.08818919  1301,6917.945,95.439,541.07,538.549,0.0
51976.0,STARLINK-3663,PAYLOAD,2022-06-29 06:00:00,15.08823958,0.0001656,53.2222,336.9771,50.286,350.6405,0.0021741,0.00034467,0.0,0 STARLINK-3663,1 51976U 22025W   22180.25001157  .00034467  00000-0  21741-2 0  9994,2 51976  53.2222 336.9771 0001656  50.2860 350.6405 15.08823958 18440,6917.929,95.439,540.94,538.649,0.0
51976.0,STARLINK-3663,PAYLOAD,2022-06-29 14:00:01,15.08863799,0.000176,53.2218,335.4817,50.2545,2.2561,-0.0017066,-0.00027364,0.0,0 STARLINK-3663,1 51976U 22025W   22180.58334491 -.00027364  00000-0 -17066-2 0  9995,2 51976  53.2218 335.4817 0001760  50.2545   2.2561 15.08863799  1303,6917.808000000001,95.436,540.89,538.455,0.0
51976.0,STARLINK-3663,PAYLOAD,2022-06-29 22:00:00,15.08848866,0.0001833,53.2209,333.9865,43.5611,20.562,-0.00034142,-5.719e-05,0.0,0 STARLINK-3663,1 51976U 22025W   22180.91667824 -.00005719  00000-0 -34142-3 0  9996,2 51976  53.2209 333.9865 0001833  43.5611  20.5620 15.08848866  1306,6917.853,95.437,540.986,538.45,0.0
51976.0,STARLINK-3663,PAYLOAD,2022-06-30 14:00:01,15.08846674,0.0001701,53.2216,330.9932,47.9292,39.3716,-0.0018814,-0.00030111,0.0,0 STARLINK-3663,1 51976U 22025W   22181.58334491 -.00030111  00000-0 -18814-2 0  9992,2 51976  53.2216 330.9932 0001701  47.9292  39.3716 15.08846674  1302,6917.86,95.437,540.9019999999998,538.548,0.0
51976.0,STARLINK-3663,PAYLOAD,2022-06-30 22:00:00,15.08822131,0.0001804,53.221,329.4981,42.5306,56.3607,0.0017339,0.00027401,0.0,0 STARLINK-3663,1 51976U 22025W   22181.91667824  .00027401  00000-0  17339-2 0  9995,2 51976  53.2210 329.4981 0001804  42.5306  56.3607 15.08822131  1304,6917.935,95.439,541.048,538.552,0.0
51976.0,STARLINK-3663,PAYLOAD,2022-07-01 06:00:00,15.08819532,0.000158,53.2215,327.9999,48.7787,61.7155,0.0026118,0.000415,0.0,0 STARLINK-3663,1 51976U 22025W   22182.25001157  .00041500  00000-0  26118-2 0  9995,2 51976  53.2215 327.9999 0001580  48.7787  61.7155 15.08819532 18759,6917.943,95.439,540.901,538.715,0.0
51976.0,STARLINK-3663,PAYLOAD,2022-07-01 14:00:01,15.08858981,0.0001692,53.2217,326.5048,48.3343,73.7431,-0.0017765,-0.00028465,0.0,0 STARLINK-3663,1 51976U 22025W   22182.58334491 -.00028465  00000-0 -17765-2 0  9996,2 51976  53.2217 326.5048 0001692  48.3343  73.7431 15.08858981  1303,6917.821999999999,95.436,540.8580000000002,538.5169999999998,0.0
51976.0,STARLINK-3663,PAYLOAD,2022-07-01 22:00:00,15.088499100000002,0.000181,53.2212,325.0092,44.1877,89.4942,-0.00032831,-5.511e-05,0.0,0 STARLINK-3663,1 51976U 22025W   22182.91667824 -.00005511  00000-0 -32831-3 0  9991,2 51976  53.2212 325.0092 0001810  44.1877  89.4942 15.08849910  1302,6917.85,95.437,540.967,538.4630000000002,0.0
51976.0,STARLINK-3663,PAYLOAD,2022-07-02 14:00:01,15.08840033,0.0001769,53.2214,322.0165,51.5419,105.3256,-0.0016320999999999,-0.00026169,0.0,0 STARLINK-3663,1 51976U 22025W   22183.58334491 -.00026169  00000-0 -16321-2 0  9993,2 51976  53.2214 322.0165 0001769  51.5419 105.3256 15.08840033  1302,6917.88,95.438,540.969,538.5219999999998,0.0
